ONEWEB-0545             
1 54647U 22166F   25003.46682483  .00003982  00000+0  96009-2 0  9991
2 54647  87.9297 349.5362 0001836  69.6408 290.4923 13.21859392101524
ONEWEB-0580             
1 54648U 22166G   25003.44004610  .00000056  00000+0  10421-3 0  9994
2 54648  87.9306 349.5250 0002063  75.0842 285.0520 13.21825573101569
ONEWEB-0582             
1 54649U 22166H   25003.48261915  .00000095  00000+0  19784-3 0  9996
2 54649  87.9297 349.5479 0002170  71.3132 288.8237 13.21825755101548
ONEWEB-0583             
1 54650U 22166J   25003.49366370  .00000050  00000+0  90507-4 0  9994
2 54650  87.9300 349.5429 0001838  82.8540 277.2803 13.21825185101559
ONEWEB-0584             
1 54651U 22166K   25003.51416906  .00000025  00000+0  29768-4 0  9992
2 54651  87.9308 349.5142 0002176  76.4247 283.7129 13.21826430101545
ONEWEB-0585             
1 54652U 22166L   25003.46370024  .00000152  00000+0  33609-3 0  9996
2 54652  87.9295 349.5289 0001824  87.7981 272.3362 13.21825777101548
ONEWEB-0586             
1 54653U 22166M   25003.47634428 -.00002420  00000+0 -58934-2 0  9998
2 54653  87.9305 349.5374 0001848  76.7196 283.4144 13.21805934101542
ONEWEB-0587             
1 54654U 22166N   25003.48576615 -.00000012  00000+0 -59833-4 0  9999
2 54654  87.9299 349.4876 0001818  92.7448 267.3894 13.21828336101708
